{"type":"FeatureCollection","features":[{"type":"Feature","properties":{"name":"강남구","code":"11680"},"geometry":{"type":"Polygon","coordinates":[[[127.039813,37.535828],[127.046038,37.53426],[127.046135,37.534201],[127.049513,37.532219],[127.055145,37.528671],[127.056237,37.528327],[127.060176,37.527094],[127.065475,37.525073],[127.065487,37.525071],[127.06752,37.524587],[127.067626,37.520874],[127.069642,37.504154],[127.069811,37.502916],[127.071958,37.502542],[127.072292,37.50251],[127.075957,37.502177],[127.076189,37.502154],[127.077009,37.502077],[127.084238,37.499659],[127.090658,37.497857],[127.090735,37.497836],[127.091277,37.497682],[127.091338,37.497665],[127.094362,37.496813],[127.094461,37.496785],[127.097412,37.495704],[127.097575,37.495616],[127.098049,37.495061],[127.098816,37.4949],[127.103537,37.492708],[127.107024,37.490298],[127.111526,37.484035],[127.11507,37.478916],[127.115228,37.478706],[127.116613,37.476874],[127.116701,37.47676],[127.119722,37.472771],[127.124222,37.466531],[127.121873,37.465148],[127.121453,37.464382],[127.117489,37.46221],[127.117004,37.461494],[127.11691,37.45865],[127.115907,37.458602],[127.113285,37.460064],[127.11299,37.461144],[127.111835,37.461654],[127.106482,37.462434],[127.104357,37.462184],[127.104796,37.46117],[127.103957,37.460061],[127.101396,37.458982],[127.101292,37.458251],[127.099753,37.457364],[127.099109,37.456228],[127.095237,37.456404],[127.095463,37.457491],[127.094912,37.45849],[127.095693,37.461014],[127.09321,37.461282],[127.09204,37.462284],[127.092022,37.464931],[127.090453,37.467035],[127.088181,37.468323],[127.087549,37.46977],[127.086606,37.470767],[127.085046,37.471208],[127.084191,37.472826],[127.084524,37.475621],[127.079009,37.474773],[127.076929,37.475163],[127.076458,37.474442],[127.076435,37.474422],[127.075389,37.473495],[127.073861,37.472941],[127.0727,37.471963],[127.070438,37.471056],[127.06859,37.471013],[127.065115,37.469341],[127.060433,37.46911],[127.060044,37.469097],[127.055403,37.468823],[127.050818,37.467274],[127.050771,37.467302],[127.05105,37.469362],[127.048686,37.470065],[127.050842,37.471642],[127.045057,37.477322],[127.044022,37.479946],[127.043906,37.480564],[127.041626,37.485244],[127.038294,37.484959],[127.038123,37.484935],[127.037752,37.484881],[127.037431,37.484835],[127.034628,37.484446],[127.034105,37.484373],[127.02053,37.512805],[127.017838,37.521815],[127.015248,37.52485],[127.013194,37.522592],[127.008596,37.5256],[127.01231,37.529541],[127.015037,37.532135],[127.017456,37.533995],[127.020387,37.535458],[127.021188,37.535824],[127.021459,37.535825],[127.022666,37.535819],[127.031702,37.535842],[127.032916,37.535843],[127.037067,37.535845],[127.039813,37.535828]]]}}]}