{"type":"FeatureCollection","features":[{"type":"Feature","properties":{"name":"논현동","code":"11680108"},"geometry":{"type":"Polygon","coordinates":[[[127.024502,37.504485],[127.021342,37.511108],[127.02053,37.512805],[127.019543,37.516118],[127.028081,37.519695],[127.039075,37.523184],[127.04129,37.517223],[127.04387,37.510279],[127.038491,37.508702],[127.024502,37.504485]]]}},{"type":"Feature","properties":{"name":"자곡동","code":"11680112"},"geometry":{"type":"Polygon","coordinates":[[[127.111669,37.483804],[127.111672,37.4838],[127.112983,37.481732],[127.116052,37.477609],[127.114102,37.476888],[127.113768,37.476379],[127.111145,37.475144],[127.109485,37.47399],[127.105979,37.47571],[127.105428,37.475373],[127.106093,37.474335],[127.103028,37.471469],[127.102174,37.471385],[127.100688,37.47033],[127.099613,37.47059],[127.097882,37.470105],[127.094152,37.470138],[127.092082,37.468968],[127.091252,37.468916],[127.089054,37.468249],[127.088181,37.468323],[127.087549,37.46977],[127.086606,37.470767],[127.085046,37.471208],[127.084191,37.472826],[127.084525,37.475113],[127.084901,37.475519],[127.085347,37.475834],[127.086361,37.476323],[127.088393,37.47622],[127.089872,37.477264],[127.091675,37.477964],[127.092331,37.477619],[127.096976,37.478273],[127.098502,37.478229],[127.098066,37.479393],[127.098234,37.480343],[127.097598,37.481042],[127.098128,37.482151],[127.099246,37.482939],[127.100788,37.483237],[127.101647,37.484539],[127.103809,37.485152],[127.105298,37.482893],[127.106677,37.482797],[127.110035,37.483207],[127.110682,37.483035],[127.111669,37.483804]]]}},{"type":"Feature","properties":{"name":"역삼동","code":"11680101"},"geometry":{"type":"Polygon","coordinates":[[[127.031628,37.489561],[127.024502,37.504485],[127.038491,37.508702],[127.04387,37.510279],[127.044384,37.50904],[127.045334,37.508116],[127.047346,37.506881],[127.048257,37.506033],[127.049007,37.504521],[127.052878,37.496314],[127.046733,37.494198],[127.034575,37.490465],[127.032026,37.489538],[127.031628,37.489561]]]}},{"type":"Feature","properties":{"name":"청담동","code":"11680104"},"geometry":{"type":"Polygon","coordinates":[[[127.056237,37.528327],[127.060176,37.527094],[127.065475,37.525073],[127.063732,37.521612],[127.062315,37.521879],[127.057067,37.52005],[127.04129,37.517223],[127.039075,37.523184],[127.040714,37.527817],[127.043779,37.527035],[127.044973,37.530312],[127.045389,37.530177],[127.046536,37.53395],[127.048947,37.532547],[127.055145,37.528671],[127.056237,37.528327]]]}},{"type":"Feature","properties":{"name":"삼성동","code":"11680105"},"geometry":{"type":"Polygon","coordinates":[[[127.067626,37.520881],[127.06889,37.510304],[127.066526,37.509892],[127.049007,37.504521],[127.048257,37.506033],[127.047346,37.506881],[127.045334,37.508116],[127.044384,37.50904],[127.04387,37.510279],[127.04129,37.517223],[127.057067,37.52005],[127.062315,37.521879],[127.063732,37.521612],[127.065475,37.525073],[127.06752,37.524587],[127.067626,37.520881]]]}},{"type":"Feature","properties":{"name":"도곡동","code":"11680118"},"geometry":{"type":"Polygon","coordinates":[[[127.056439,37.487593],[127.051534,37.484654],[127.047976,37.48254],[127.044675,37.48073],[127.044022,37.479946],[127.041626,37.485246],[127.041767,37.485441],[127.034105,37.484373],[127.031628,37.489561],[127.032026,37.489538],[127.034575,37.490465],[127.046733,37.494198],[127.052878,37.496314],[127.055501,37.490766],[127.056439,37.487593]]]}},{"type":"Feature","properties":{"name":"율현동","code":"11680113"},"geometry":{"type":"Polygon","coordinates":[[[127.119738,37.472591],[127.119388,37.47195],[127.120235,37.470565],[127.122175,37.468538],[127.120674,37.467576],[127.118917,37.467503],[127.116842,37.466697],[127.115108,37.46641],[127.113461,37.466887],[127.112894,37.467506],[127.110967,37.468163],[127.108837,37.467918],[127.107437,37.467479],[127.106337,37.465872],[127.104722,37.466212],[127.103775,37.468028],[127.103108,37.468401],[127.102409,37.469497],[127.100688,37.47033],[127.102174,37.471385],[127.103028,37.471469],[127.106093,37.474335],[127.105428,37.475373],[127.105979,37.47571],[127.109485,37.47399],[127.111145,37.475144],[127.113768,37.476379],[127.114102,37.476888],[127.116052,37.477609],[127.116053,37.477608],[127.119738,37.472591]]]}},{"type":"Feature","properties":{"name":"개포동","code":"11680103"},"geometry":{"type":"Polygon","coordinates":[[[127.075542,37.492495],[127.075002,37.492319],[127.073457,37.491817],[127.073154,37.491718],[127.072935,37.491689],[127.073172,37.490627],[127.074673,37.487831],[127.075629,37.486049],[127.075777,37.486116],[127.07722,37.486788],[127.078045,37.486124],[127.077418,37.484719],[127.075936,37.483048],[127.074805,37.480582],[127.072609,37.479382],[127.072938,37.47816],[127.073096,37.477964],[127.073882,37.477381],[127.074369,37.476161],[127.076929,37.475163],[127.07677,37.474929],[127.076704,37.474828],[127.076481,37.474461],[127.076435,37.474422],[127.076298,37.474307],[127.075956,37.474002],[127.075906,37.473958],[127.075467,37.473566],[127.075302,37.473443],[127.073549,37.472652],[127.0727,37.471963],[127.071765,37.471738],[127.070763,37.471367],[127.069953,37.470934],[127.069635,37.471053],[127.068288,37.470768],[127.067884,37.470434],[127.066268,37.469907],[127.06589,37.469763],[127.065115,37.469341],[127.064172,37.469211],[127.063829,37.469007],[127.062987,37.469167],[127.062419,37.469335],[127.062377,37.469301],[127.062152,37.469088],[127.061875,37.469053],[127.061466,37.469003],[127.059103,37.469201],[127.057846,37.46891],[127.056548,37.468485],[127.056009,37.468481],[127.055403,37.468823],[127.054226,37.46812],[127.053333,37.468161],[127.053067,37.468065],[127.05118,37.467401],[127.050778,37.467408],[127.051112,37.468596],[127.05066,37.46962],[127.050452,37.469756],[127.049641,37.469824],[127.048876,37.469899],[127.048686,37.470065],[127.050842,37.471642],[127.045057,37.477322],[127.044022,37.479946],[127.044675,37.48073],[127.047976,37.48254],[127.051534,37.484654],[127.056606,37.487693],[127.057092,37.487983],[127.059252,37.488937],[127.061134,37.489391],[127.066913,37.490452],[127.068161,37.490934],[127.069774,37.491898],[127.072111,37.494164],[127.072162,37.494213],[127.072317,37.494251],[127.073072,37.494249],[127.073866,37.494384],[127.074195,37.494837],[127.074234,37.494899],[127.074651,37.495957],[127.074702,37.496184],[127.074793,37.496269],[127.074818,37.496277],[127.075466,37.496484],[127.075693,37.496556],[127.07636,37.496769],[127.076407,37.496784],[127.076511,37.496817],[127.077108,37.497011],[127.077265,37.497061],[127.078306,37.497398],[127.078407,37.497431],[127.078473,37.497517],[127.078486,37.497557],[127.078501,37.497604],[127.07881,37.497427],[127.080811,37.496285],[127.081443,37.495489],[127.080305,37.494425],[127.08037,37.494069],[127.075542,37.492495]]]}},{"type":"Feature","properties":{"name":"일원동","code":"11680114"},"geometry":{"type":"Polygon","coordinates":[[[127.085347,37.475834],[127.084901,37.475519],[127.083252,37.475533],[127.079009,37.474773],[127.077952,37.474742],[127.076929,37.475163],[127.074369,37.476161],[127.073882,37.477381],[127.073096,37.477964],[127.072938,37.47816],[127.072609,37.479382],[127.074805,37.480582],[127.075936,37.483048],[127.077418,37.484719],[127.078045,37.486124],[127.07722,37.486788],[127.075777,37.486116],[127.075629,37.486049],[127.074673,37.487831],[127.073172,37.490627],[127.072935,37.491689],[127.073154,37.491718],[127.073457,37.491817],[127.075002,37.492319],[127.075542,37.492495],[127.08037,37.494069],[127.080305,37.494425],[127.081443,37.495489],[127.080811,37.496285],[127.07881,37.497427],[127.078801,37.497433],[127.08031,37.49959],[127.079947,37.501096],[127.082133,37.500369],[127.084238,37.499659],[127.094816,37.496686],[127.095878,37.496302],[127.097823,37.495484],[127.097422,37.495194],[127.093795,37.494085],[127.092074,37.493366],[127.094271,37.49226],[127.091946,37.491847],[127.089879,37.491292],[127.091474,37.489712],[127.091674,37.488386],[127.090248,37.487415],[127.087014,37.487292],[127.085706,37.486658],[127.08615,37.485893],[127.086953,37.482339],[127.086886,37.480958],[127.085855,37.47993],[127.08526,37.477242],[127.085347,37.475834]]]}},{"type":"Feature","properties":{"name":"세곡동","code":"11680111"},"geometry":{"type":"Polygon","coordinates":[[[127.124222,37.466531],[127.121873,37.465148],[127.121453,37.464382],[127.120118,37.463503],[127.117489,37.46221],[127.117004,37.461494],[127.11691,37.45865],[127.115907,37.458602],[127.113969,37.459526],[127.113285,37.460064],[127.11299,37.461144],[127.111835,37.461654],[127.108169,37.462284],[127.106482,37.462434],[127.104357,37.462184],[127.104796,37.46117],[127.103957,37.460061],[127.102707,37.459734],[127.101396,37.458982],[127.101292,37.458251],[127.099753,37.457364],[127.099109,37.456228],[127.098251,37.456381],[127.095237,37.456404],[127.095463,37.457491],[127.094912,37.45849],[127.095623,37.46026],[127.095693,37.461014],[127.094655,37.46096],[127.09321,37.461282],[127.09204,37.462284],[127.092022,37.464931],[127.090453,37.467035],[127.089476,37.467583],[127.089054,37.468249],[127.091252,37.468916],[127.092082,37.468968],[127.094152,37.470138],[127.097882,37.470105],[127.099613,37.47059],[127.100688,37.47033],[127.102409,37.469497],[127.103108,37.468401],[127.103775,37.468028],[127.104722,37.466212],[127.106337,37.465872],[127.107437,37.467479],[127.108837,37.467918],[127.110967,37.468163],[127.112894,37.467506],[127.113461,37.466887],[127.115108,37.46641],[127.116842,37.466697],[127.118917,37.467503],[127.120674,37.467576],[127.122175,37.468538],[127.120235,37.470565],[127.119388,37.47195],[127.119738,37.472591],[127.124222,37.466531]]]}},{"type":"Feature","properties":{"name":"신사동","code":"11680107"},"geometry":{"type":"MultiPolygon","coordinates":[[[[127.019543,37.516118],[127.017838,37.521815],[127.030664,37.52833],[127.031914,37.528829],[127.034663,37.529171],[127.036215,37.528962],[127.036383,37.528921],[127.040714,37.527817],[127.039075,37.523184],[127.028081,37.519695],[127.019543,37.516118]]],[[[127.008596,37.5256],[127.012473,37.529684],[127.016357,37.52601],[127.015241,37.524854],[127.013197,37.52259],[127.008596,37.5256]]]]}},{"type":"Feature","properties":{"name":"수서동","code":"11680115"},"geometry":{"type":"Polygon","coordinates":[[[127.111669,37.483804],[127.110682,37.483035],[127.110035,37.483207],[127.106677,37.482797],[127.105298,37.482893],[127.103809,37.485152],[127.101647,37.484539],[127.100788,37.483237],[127.099246,37.482939],[127.098128,37.482151],[127.097598,37.481042],[127.098234,37.480343],[127.098066,37.479393],[127.098502,37.478229],[127.096976,37.478273],[127.092331,37.477619],[127.091675,37.477964],[127.089872,37.477264],[127.088393,37.47622],[127.086361,37.476323],[127.085347,37.475834],[127.08526,37.477242],[127.085855,37.47993],[127.086886,37.480958],[127.086953,37.482339],[127.08615,37.485893],[127.085706,37.486658],[127.087014,37.487292],[127.090248,37.487415],[127.091674,37.488386],[127.091474,37.489712],[127.089879,37.491292],[127.091946,37.491847],[127.094271,37.49226],[127.092074,37.493366],[127.093795,37.494085],[127.097422,37.495194],[127.098816,37.4949],[127.103534,37.49271],[127.107024,37.490298],[127.111669,37.483804]]]}},{"type":"Feature","properties":{"name":"압구정동","code":"11680110"},"geometry":{"type":"Polygon","coordinates":[[[127.046536,37.53395],[127.045389,37.530177],[127.044973,37.530312],[127.043779,37.527035],[127.040714,37.527817],[127.036383,37.528921],[127.036215,37.528962],[127.034663,37.529171],[127.031914,37.528829],[127.030664,37.52833],[127.017838,37.521815],[127.016954,37.523029],[127.015241,37.524854],[127.016357,37.52601],[127.012473,37.529684],[127.015037,37.532135],[127.017456,37.533995],[127.021191,37.535825],[127.035823,37.535845],[127.040208,37.535778],[127.046029,37.534265],[127.046536,37.53395]]]}},{"type":"Feature","properties":{"name":"대치동","code":"11680106"},"geometry":{"type":"Polygon","coordinates":[[[127.078801,37.497433],[127.078501,37.497604],[127.078486,37.497557],[127.078473,37.497517],[127.078407,37.497431],[127.078306,37.497398],[127.077265,37.497061],[127.077108,37.497011],[127.076511,37.496817],[127.076407,37.496784],[127.07636,37.496769],[127.075693,37.496556],[127.075466,37.496484],[127.074818,37.496277],[127.074793,37.496269],[127.074702,37.496184],[127.074651,37.495957],[127.074234,37.494899],[127.074195,37.494837],[127.073866,37.494384],[127.073072,37.494249],[127.072317,37.494251],[127.072162,37.494213],[127.072111,37.494164],[127.069774,37.491898],[127.068161,37.490934],[127.066913,37.490452],[127.061134,37.489391],[127.059252,37.488937],[127.057092,37.487983],[127.056606,37.487693],[127.056439,37.487593],[127.055501,37.490766],[127.052878,37.496314],[127.049007,37.504521],[127.066526,37.509892],[127.06889,37.510304],[127.069838,37.502746],[127.077009,37.502077],[127.079947,37.501096],[127.08031,37.49959],[127.078801,37.497433]]]}}]}